CCSDS_OMM_VERS = 2.0
CREATION_DATE  = 
ORIGINATOR     = 

OBJECT_NAME    = STARLINK-36139
OBJECT_ID      = 2025-288H
CENTER_NAME    = EARTH
REF_FRAME      = TEME
TIME_SYSTEM    = UTC
MEAN_ELEMENT_THEORY = SGP/SGP4

EPOCH          = 2025-12-19T00:00:02.000160
MEAN_MOTION    = 15.84996151
ECCENTRICITY   = .00017231
INCLINATION    = 43.0013
RA_OF_ASC_NODE = 128.8177
ARG_OF_PERICENTER = 280.8021
MEAN_ANOMALY   = 159.3069

EPHEMERIS_TYPE = 0
CLASSIFICATION_TYPE = U
NORAD_CAT_ID   = 66966
ELEMENT_SET_NO = 999
REV_AT_EPOCH   = 283
BSTAR          = -.6456443E-2
MEAN_MOTION_DOT = -.1370764E-1
MEAN_MOTION_DDOT = 0

CCSDS_OMM_VERS = 2.0
CREATION_DATE  = 
ORIGINATOR     = 

OBJECT_NAME    = STARLINK-36136
OBJECT_ID      = 2025-288J
CENTER_NAME    = EARTH
REF_FRAME      = TEME
TIME_SYSTEM    = UTC
MEAN_ELEMENT_THEORY = SGP/SGP4

EPOCH          = 2025-12-19T00:00:02.000160
MEAN_MOTION    = 15.85011175
ECCENTRICITY   = .00017311
INCLINATION    = 43.0014
RA_OF_ASC_NODE = 128.8123
ARG_OF_PERICENTER = 274.5565
MEAN_ANOMALY   = 167.6755

EPHEMERIS_TYPE = 0
CLASSIFICATION_TYPE = U
NORAD_CAT_ID   = 66967
ELEMENT_SET_NO = 999
REV_AT_EPOCH   = 283
BSTAR          = -.65141174E-2
MEAN_MOTION_DOT = -.1382319E-1
MEAN_MOTION_DDOT = 0

CCSDS_OMM_VERS = 2.0
CREATION_DATE  = 
ORIGINATOR     = 

OBJECT_NAME    = STARLINK-36152
OBJECT_ID      = 2025-288K
CENTER_NAME    = EARTH
REF_FRAME      = TEME
TIME_SYSTEM    = UTC
MEAN_ELEMENT_THEORY = SGP/SGP4

EPOCH          = 2025-12-19T00:00:02.000160
MEAN_MOTION    = 15.84995045
ECCENTRICITY   = .00015994
INCLINATION    = 43.0015
RA_OF_ASC_NODE = 128.8054
ARG_OF_PERICENTER = 284.1867
MEAN_ANOMALY   = 160.7243

EPHEMERIS_TYPE = 0
CLASSIFICATION_TYPE = U
NORAD_CAT_ID   = 66968
ELEMENT_SET_NO = 999
REV_AT_EPOCH   = 283
BSTAR          = -.65549097E-2
MEAN_MOTION_DOT = -.1388793E-1
MEAN_MOTION_DDOT = 0

CCSDS_OMM_VERS = 2.0
CREATION_DATE  = 
ORIGINATOR     = 

OBJECT_NAME    = STARLINK-36149
OBJECT_ID      = 2025-288L
CENTER_NAME    = EARTH
REF_FRAME      = TEME
TIME_SYSTEM    = UTC
MEAN_ELEMENT_THEORY = SGP/SGP4

EPOCH          = 2025-12-19T00:00:02.000160
MEAN_MOTION    = 15.85002658
ECCENTRICITY   = .00016812
INCLINATION    = 43.0013
RA_OF_ASC_NODE = 128.7762
ARG_OF_PERICENTER = 284.3173
MEAN_ANOMALY   = 172.2535

EPHEMERIS_TYPE = 0
CLASSIFICATION_TYPE = U
NORAD_CAT_ID   = 66969
ELEMENT_SET_NO = 999
REV_AT_EPOCH   = 283
BSTAR          = -.67801278E-2
MEAN_MOTION_DOT = -.1459692E-1
MEAN_MOTION_DDOT = 0

CCSDS_OMM_VERS = 2.0
CREATION_DATE  = 
ORIGINATOR     = 

OBJECT_NAME    = STARLINK-35703
OBJECT_ID      = 2025-288M
CENTER_NAME    = EARTH
REF_FRAME      = TEME
TIME_SYSTEM    = UTC
MEAN_ELEMENT_THEORY = SGP/SGP4

EPOCH          = 2025-12-19T00:00:02.000160
MEAN_MOTION    = 15.85002866
ECCENTRICITY   = .00015404
INCLINATION    = 43.0014
RA_OF_ASC_NODE = 128.7523
ARG_OF_PERICENTER = 281.3703
MEAN_ANOMALY   = 184.5646

EPHEMERIS_TYPE = 0
CLASSIFICATION_TYPE = U
NORAD_CAT_ID   = 66970
ELEMENT_SET_NO = 999
REV_AT_EPOCH   = 283
BSTAR          = -.69560582E-2
MEAN_MOTION_DOT = -.149307E-1
MEAN_MOTION_DDOT = 0

CCSDS_OMM_VERS = 2.0
CREATION_DATE  = 
ORIGINATOR     = 

OBJECT_NAME    = STARLINK-35678
OBJECT_ID      = 2025-288N
CENTER_NAME    = EARTH
REF_FRAME      = TEME
TIME_SYSTEM    = UTC
MEAN_ELEMENT_THEORY = SGP/SGP4

EPOCH          = 2025-12-19T00:00:02.000160
MEAN_MOTION    = 15.85025116
ECCENTRICITY   = .0001683
INCLINATION    = 43.0017
RA_OF_ASC_NODE = 128.8018
ARG_OF_PERICENTER = 281.0736
MEAN_ANOMALY   = 165.5235

EPHEMERIS_TYPE = 0
CLASSIFICATION_TYPE = U
NORAD_CAT_ID   = 66971
ELEMENT_SET_NO = 999
REV_AT_EPOCH   = 283
BSTAR          = -.65591066E-2
MEAN_MOTION_DOT = -.139141E-1
MEAN_MOTION_DDOT = 0

CCSDS_OMM_VERS = 2.0
CREATION_DATE  = 
ORIGINATOR     = 

OBJECT_NAME    = STARLINK-34846
OBJECT_ID      = 2025-288P
CENTER_NAME    = EARTH
REF_FRAME      = TEME
TIME_SYSTEM    = UTC
MEAN_ELEMENT_THEORY = SGP/SGP4

EPOCH          = 2025-12-19T00:00:02.000160
MEAN_MOTION    = 15.85010010
ECCENTRICITY   = .00016949
INCLINATION    = 43.0014
RA_OF_ASC_NODE = 128.7948
ARG_OF_PERICENTER = 279.1316
MEAN_ANOMALY   = 170.1208

EPHEMERIS_TYPE = 0
CLASSIFICATION_TYPE = U
NORAD_CAT_ID   = 66972
ELEMENT_SET_NO = 999
REV_AT_EPOCH   = 283
BSTAR          = -.66175211E-2
MEAN_MOTION_DOT = -.1401282E-1
MEAN_MOTION_DDOT = 0

CCSDS_OMM_VERS = 2.0
CREATION_DATE  = 
ORIGINATOR     = 

OBJECT_NAME    = STARLINK-35778
OBJECT_ID      = 2025-288Q
CENTER_NAME    = EARTH
REF_FRAME      = TEME
TIME_SYSTEM    = UTC
MEAN_ELEMENT_THEORY = SGP/SGP4

EPOCH          = 2025-12-19T00:00:02.000160
MEAN_MOTION    = 15.85010455
ECCENTRICITY   = .00016281
INCLINATION    = 43.0016
RA_OF_ASC_NODE = 128.7889
ARG_OF_PERICENTER = 281.5860
MEAN_ANOMALY   = 170.0757

EPHEMERIS_TYPE = 0
CLASSIFICATION_TYPE = U
NORAD_CAT_ID   = 66973
ELEMENT_SET_NO = 999
REV_AT_EPOCH   = 283
BSTAR          = -.66784054E-2
MEAN_MOTION_DOT = -.1440689E-1
MEAN_MOTION_DDOT = 0

CCSDS_OMM_VERS = 2.0
CREATION_DATE  = 
ORIGINATOR     = 

OBJECT_NAME    = STARLINK-35780
OBJECT_ID      = 2025-288R
CENTER_NAME    = EARTH
REF_FRAME      = TEME
TIME_SYSTEM    = UTC
MEAN_ELEMENT_THEORY = SGP/SGP4

EPOCH          = 2025-12-19T00:00:02.000160
MEAN_MOTION    = 15.85009218
ECCENTRICITY   = .00017215
INCLINATION    = 43.0017
RA_OF_ASC_NODE = 128.7833
ARG_OF_PERICENTER = 282.1575
MEAN_ANOMALY   = 171.8372

EPHEMERIS_TYPE = 0
CLASSIFICATION_TYPE = U
NORAD_CAT_ID   = 66974
ELEMENT_SET_NO = 999
REV_AT_EPOCH   = 283
BSTAR          = -.67052957E-2
MEAN_MOTION_DOT = -.1445829E-1
MEAN_MOTION_DDOT = 0

CCSDS_OMM_VERS = 2.0
CREATION_DATE  = 
ORIGINATOR     = 

OBJECT_NAME    = STARLINK-35777
OBJECT_ID      = 2025-288S
CENTER_NAME    = EARTH
REF_FRAME      = TEME
TIME_SYSTEM    = UTC
MEAN_ELEMENT_THEORY = SGP/SGP4

EPOCH          = 2025-12-19T00:00:02.000160
MEAN_MOTION    = 15.85015656
ECCENTRICITY   = .00016581
INCLINATION    = 43.0019
RA_OF_ASC_NODE = 128.7710
ARG_OF_PERICENTER = 280.9395
MEAN_ANOMALY   = 177.7470

EPHEMERIS_TYPE = 0
CLASSIFICATION_TYPE = U
NORAD_CAT_ID   = 66975
ELEMENT_SET_NO = 999
REV_AT_EPOCH   = 283
BSTAR          = -.68228761E-2
MEAN_MOTION_DOT = -.1468652E-1
MEAN_MOTION_DDOT = 0

CCSDS_OMM_VERS = 2.0
CREATION_DATE  = 
ORIGINATOR     = 

OBJECT_NAME    = STARLINK-35772
OBJECT_ID      = 2025-288T
CENTER_NAME    = EARTH
REF_FRAME      = TEME
TIME_SYSTEM    = UTC
MEAN_ELEMENT_THEORY = SGP/SGP4

EPOCH          = 2025-12-19T06:02:25.830240
MEAN_MOTION    = 15.75253336
ECCENTRICITY   = .00080064
INCLINATION    = 43.0017
RA_OF_ASC_NODE = 127.4603
ARG_OF_PERICENTER = 208.8618
MEAN_ANOMALY   = 151.1810

EPHEMERIS_TYPE = 0
CLASSIFICATION_TYPE = U
NORAD_CAT_ID   = 66976
ELEMENT_SET_NO = 999
REV_AT_EPOCH   = 287
BSTAR          = .1331003E-2
MEAN_MOTION_DOT = .211472E-2
MEAN_MOTION_DDOT = 0

CCSDS_OMM_VERS = 2.0
CREATION_DATE  = 
ORIGINATOR     = 

OBJECT_NAME    = STARLINK-35770
OBJECT_ID      = 2025-288U
CENTER_NAME    = EARTH
REF_FRAME      = TEME
TIME_SYSTEM    = UTC
MEAN_ELEMENT_THEORY = SGP/SGP4

EPOCH          = 2025-12-19T00:00:02.000160
MEAN_MOTION    = 15.84996764
ECCENTRICITY   = .00016691
INCLINATION    = 43.0017
RA_OF_ASC_NODE = 128.7645
ARG_OF_PERICENTER = 281.1558
MEAN_ANOMALY   = 180.2730

EPHEMERIS_TYPE = 0
CLASSIFICATION_TYPE = U
NORAD_CAT_ID   = 66977
ELEMENT_SET_NO = 999
REV_AT_EPOCH   = 283
BSTAR          = -.689093E-2
MEAN_MOTION_DOT = -.1480411E-1
MEAN_MOTION_DDOT = 0

