STARLINK-36139          
1 66966U 25288H   25353.00002315 -.01370764  00000+0 -64564-2 0  9993
2 66966  43.0013 128.8177 0001723 280.8021 159.3069 15.84996151  2839
STARLINK-36136          
1 66967U 25288J   25353.00002315 -.01382319  00000+0 -65141-2 0  9995
2 66967  43.0014 128.8123 0001731 274.5565 167.6755 15.85011175  2833
STARLINK-36152          
1 66968U 25288K   25353.00002315 -.01388793  00000+0 -65549-2 0  9990
2 66968  43.0015 128.8054 0001599 284.1867 160.7243 15.84995045  2834
STARLINK-36149          
1 66969U 25288L   25353.00002315 -.01459692  00000+0 -67801-2 0  9991
2 66969  43.0013 128.7762 0001681 284.3173 172.2535 15.85002658  2834
STARLINK-35703          
1 66970U 25288M   25353.00002315 -.01493070  00000+0 -69561-2 0  9996
2 66970  43.0014 128.7523 0001540 281.3703 184.5646 15.85002866  2832
STARLINK-35678          
1 66971U 25288N   25353.00002315 -.01391410  00000+0 -65591-2 0  9991
2 66971  43.0017 128.8018 0001683 281.0736 165.5235 15.85025116  2833
STARLINK-34846          
1 66972U 25288P   25353.00002315 -.01401282  00000+0 -66175-2 0  9990
2 66972  43.0014 128.7948 0001694 279.1316 170.1208 15.85010010  2835
STARLINK-35778          
1 66973U 25288Q   25353.00002315 -.01440689  00000+0 -66784-2 0  9991
2 66973  43.0016 128.7889 0001628 281.5860 170.0757 15.85010455  2831
STARLINK-35780          
1 66974U 25288R   25353.00002315 -.01445829  00000+0 -67053-2 0  9993
2 66974  43.0017 128.7833 0001721 282.1575 171.8372 15.85009218  2833
STARLINK-35777          
1 66975U 25288S   25353.00002315 -.01468652  00000+0 -68229-2 0  9999
2 66975  43.0019 128.7710 0001658 280.9395 177.7470 15.85015656  2832
STARLINK-35772          
1 66976U 25288T   25353.25168785  .00211472  00000+0  13310-2 0  9995
2 66976  43.0017 127.4603 0008006 208.8618 151.1810 15.75253336  2875
STARLINK-35770          
1 66977U 25288U   25353.00002315 -.01480411  00000+0 -68909-2 0  9993
2 66977  43.0017 128.7645 0001669 281.1558 180.2730 15.84996764  2830
